C/A,UNIT,STATION,LINENAME,DIVISION,LATITUDE,LONGITUDE,STREET,CITY,STATE,COUNTY,ZIP
R470,X002,ELTINGVILLE PK,Z,SRT,40.5446,-74.164581,Eltingville Blvd,Staten Island,NY,Richmond County,10312
R544,PTH02,HARRISON,1,PTH,40.738879,-74.155533,Co Rd 697,Harrison,NJ,Hudson County,7029
R165,S102,TOMPKINSVILLE,1,SRT,40.636948,-74.074824,Minthorne St,Staten Island,NY,Richmond County,10301
R070,S101,ST. GEORGE,1,SRT,40.643738,-74.073622,Richmond Ter,Staten Island,NY,Richmond County,10301
R070,S101A,JOURNAL SQUARE,1,SRT,40.643738,-74.073622,Richmond Ter,Staten Island,NY,Richmond County,10301
R552,PTH03,GROVE STREET,1,PTH,40.732102,-74.063915,Journal Concourse Sq W,Jersey City,NJ,Hudson County,7306
R551,PTH04,EXCHANGE PLACE,1,PTH,40.719876,-74.042616,Co Rd 639,Jersey City,NJ,Hudson County,7302
R543,PTH05,BAY RIDGE-95 ST,1,PTH,40.716737,-74.033024,Christopher Columbus Dr,Jersey City,NJ,Hudson County,7302
R216,C027,86 ST,R,BMT,40.616624,-74.030964,4th Ave,Brooklyn,NY,Kings County,11209
R216,C028,77 ST,R,BMT,40.616624,-74.030964,4th Ave,Brooklyn,NY,Kings County,11209
R215,C025,BAY RIDGE AV,R,BMT,40.622715,-74.028368,4th Ave,Brooklyn,NY,Kings County,11209
R215,C026,59 ST,R,BMT,40.622715,-74.028368,4th Ave,Brooklyn,NY,Kings County,11209
R214,C024,BOWLING GREEN,R,BMT,40.629702,-74.025514,4th Ave,Brooklyn,NY,Kings County,11209
R213,C023,53 ST,R,BMT,40.634945,-74.023411,4th Ave,Brooklyn,NY,Kings County,11220
R212,C021,RECTOR ST,NR,BMT,40.641426,-74.017972,59th St,Brooklyn,NY,Kings County,11220
R212,C022,2 BDWY CUST SRV,NR,BMT,40.641426,-74.017972,59th St,Brooklyn,NY,Kings County,11220
R041,R201,WALL ST,45,IRT,40.704782,-74.014099,Broadway,New York,NY,New York County,10004
R041,R200A,8 AV,45,IRT,40.704782,-74.014099,Broadway,New York,NY,New York County,10004
R042,R202,CORTLANDT ST,45,IRT,40.704782,-74.014099,Broadway,New York,NY,New York County,10004
R233,C020,BROAD ST,R,BMT,40.644959,-74.014034,4th Ave,Brooklyn,NY,Kings County,11220
R304,R103,PATH WTC,1,IRT,40.70784,-74.013691,Greenwich St,New York,NY,New York County,10006
R304,R102,PATH WTC 2,1,IRT,40.70784,-74.013691,Greenwich St,New York,NY,New York County,10006
R227,A055,45 ST,R,BMT,40.707222,-74.013391,Trinity Pl,New York,NY,New York County,10006
R227,A054,WORLD TRADE CTR,R,BMT,40.707222,-74.013391,Trinity Pl,New York,NY,New York County,10006
R076,MCC07,CHAMBERS ST,45,IRT,40.704591,-74.013273,Beaver St,New York,NY,New York County,10004
R043,R203,PARK PLACE,45,IRT,40.707466,-74.011867,Broadway,New York,NY,New York County,10005
R043,R203A,FULTON ST,45,IRT,40.707466,-74.011867,Broadway,New York,NY,New York County,10005
R043,R204,MURRAY ST-B'WAY,45,IRT,40.707466,-74.011867,Broadway,New York,NY,New York County,10005
R043,R204A,FRANKLIN ST,45,IRT,40.707466,-74.011867,Broadway,New York,NY,New York County,10005
R390,D002,CANAL ST,N,BMT,40.635011,-74.011717,61st St,Brooklyn,NY,Kings County,11220
R305,R107,FT HAMILTON PKY,1,IRT,40.710454,-74.011324,Church St,New York,NY,New York County,10007
R305,R106,HOUSTON ST,1,IRT,40.710454,-74.011324,Church St,New York,NY,New York County,10007
R305,R108,BROOKLYN BRIDGE,1,IRT,40.710454,-74.011324,Church St,New York,NY,New York County,10007
R305,R109,SPRING ST,1,IRT,40.710454,-74.011324,Church St,New York,NY,New York County,10007
R088,A050,36 ST,R,BMT,40.710662,-74.011052,Church St,New York,NY,New York County,10007
R088,A052,CHRISTOPHER ST,R,BMT,40.710662,-74.011052,Church St,New York,NY,New York County,10007
R088,A051,14 ST,R,BMT,40.710662,-74.011052,Church St,New York,NY,New York County,10007
R088,A053,18 AV,R,BMT,40.710662,-74.011052,Church St,New York,NY,New York County,10007
R125,A083,79 ST,JZ,BMT,40.706539,-74.011052,Broad St,New York,NY,New York County,10005
R125,A084,W 4 ST-WASH SQ,JZ,BMT,40.706539,-74.011052,Broad St,New York,NY,New York County,10005
R125,A085,71 ST,JZ,BMT,40.706539,-74.011052,Broad St,New York,NY,New York County,10005
R540,PTH08,20 AV,1,PTH,40.711638,-74.010708,Church St,New York,NY,New York County,10007
R540,PTH21,25 ST,1,PTH,40.711638,-74.010708,Church St,New York,NY,New York County,10007
R232,C019,23 ST,R,BMT,40.648866,-74.010086,4th Ave,Brooklyn,NY,Kings County,11220
R029,N094,18 ST,23ACE,IND,40.712557,-74.009807,Church St,New York,NY,New York County,10007
R030,R116,PRINCE ST-B'WAY,123,IRT,40.715436,-74.009335,W Broadway,New York,NY,New York County,10007
R027,R111,6 AV,23,IRT,40.706864,-74.009056,William St,New York,NY,New York County,10005
R027,R110,14 ST-6 AV,23,IRT,40.706864,-74.009056,William St,New York,NY,New York County,10005
R027,R112,14TH STREET,23,IRT,40.706864,-74.009056,William St,New York,NY,New York County,10005
R027,R112A,NEW UTRECHT AV,23,IRT,40.706864,-74.009056,William St,New York,NY,New York County,10005
R029,R115,BROADWAY/LAFAY,23ACE,IRT,40.713061,-74.008777,Park Pl,New York,NY,New York County,10007
R029,N091,SMITH-9 ST,ACE23,IND,40.71433,-74.008563,Warren St,New York,NY,New York County,10007
R029,N092,BLEECKER ST,ACE23,IND,40.71433,-74.008563,Warren St,New York,NY,New York County,10007
R002,A077,55 ST,ACJZ2345,BMT,40.709938,-74.007983,Nassau St,New York,NY,New York County,10038
R002,A081,CARROLL ST,ACJZ2345,BMT,40.709938,-74.007983,Nassau St,New York,NY,New York County,10038
R002,A082,50 ST,ACJZ2345,BMT,40.709938,-74.007983,Nassau St,New York,NY,New York County,10038
R014,N095,9 AV,ACJZ2345,IND,40.709938,-74.007983,Nassau St,New York,NY,New York County,10038
R014,R205,GRAND ST,ACJZ2345,IRT,40.709938,-74.007983,Nassau St,New York,NY,New York County,10038
R014,R206,BOWERY,2345ACJZ,IRT,40.709938,-74.007983,Nassau St,New York,NY,New York County,10038
R014,R208,BAY PARKWAY,2345ACJZ,IRT,40.709938,-74.007983,Nassau St,New York,NY,New York County,10038
R014,R205A,34 ST-PENN STA,2345ACJZ,IRT,40.709938,-74.007983,Nassau St,New York,NY,New York County,10038
R028,R113A,28 ST,2345ACJZ,IRT,40.709938,-74.007983,Nassau St,New York,NY,New York County,10038
R028,R113,TWENTY THIRD ST,2345ACJZ,IRT,40.709938,-74.007983,Nassau St,New York,NY,New York County,10038
R028,R114,CLARK ST,2345ACJZ,IRT,40.709938,-74.007983,Nassau St,New York,NY,New York County,10038
R087,A047,PROSPECT AV,R,BMT,40.713086,-74.007232,Murray St,New York,NY,New York County,10007
R343,R117,23 ST-6 AV,1,IRT,40.719323,-74.006953,Varick St,New York,NY,New York County,10013
R343,R118,8 ST-B'WAY NYU,1,IRT,40.719323,-74.006953,Varick St,New York,NY,New York County,10013
R320,R119,ASTOR PLACE,1,IRT,40.722819,-74.006267,Varick St,New York,NY,New York County,10013
R320,R120,BERGEN ST,1,IRT,40.722819,-74.006267,Varick St,New York,NY,New York County,10013
R391,D003,14 ST-UNION SQ,N,BMT,40.631428,-74.005387,62nd St,Brooklyn,NY,Kings County,11219
R391,D004,HIGH ST,N,BMT,40.631428,-74.005387,62nd St,Brooklyn,NY,Kings County,11219
R290,R123,EAST BROADWAY,1,IRT,40.728202,-74.005344,Varick St,New York,NY,New York County,10014
R290,R121,BOROUGH HALL/CT,1,IRT,40.728202,-74.005344,Varick St,New York,NY,New York County,10014
R290,R122,2 AV,1,IRT,40.728202,-74.005344,Varick St,New York,NY,New York County,10014
R290,R124,42 ST-PA BUS TE,1,IRT,40.728202,-74.005344,Varick St,New York,NY,New York County,10014
R139,N089,23 ST-5 AV,ACE,IND,40.720852,-74.005237,6th Ave,New York,NY,New York County,10013
R139,N090,9 ST,ACE,IND,40.720852,-74.005237,6th Ave,New York,NY,New York County,10013
R044,A069,4 AV,456JZ,BMT,40.713159,-74.003917,Centre St,New York,NY,New York County,10013
R044,A071,28 ST-BROADWAY,JZ456,BMT,40.713159,-74.003917,Centre St,New York,NY,New York County,10013
R044,R210,THIRTY THIRD ST,456JZ,IRT,40.713159,-74.003917,Centre St,New York,NY,New York County,10013
R044,R210A,34 ST-HERALD SQ,JZ456,IRT,40.713159,-74.003917,Centre St,New York,NY,New York County,10013
R282,N086,ESSEX ST,CE,IND,40.726202,-74.003627,6th Ave,New York,NY,New York County,10013
R282,N087,DELANCEY ST,CE,IND,40.726202,-74.003627,6th Ave,New York,NY,New York County,10013
R197,C018,JAY ST-METROTEC,DNR,BMT,40.65515,-74.003477,4th Ave,Brooklyn,NY,Kings County,11232
R189,R125,3 AV,1,IRT,40.733405,-74.002898,7th Ave S,New York,NY,New York County,10014
R189,R126,25 AV,1,IRT,40.733405,-74.002898,7th Ave S,New York,NY,New York County,10014
R175,H001,YORK ST,ACEL,BMT,40.740388,-74.002104,8th Ave,New York,NY,New York County,10011
R175,N078,42 ST-TIMES SQ,ACEL,IND,40.740388,-74.002104,8th Ave,New York,NY,New York County,10011
R372,E012,HOYT/SCHERMER,D,BMT,40.607958,-74.001782,18th Ave,Brooklyn,NY,Kings County,11214
R462,A043,HOYT ST,JNQRZ6,BMT,40.718697,-74.000977,Canal St,New York,NY,New York County,10013
R462,A044,42 ST-BRYANT PK,JNQRZ6,BMT,40.718697,-74.000977,Canal St,New York,NY,New York County,10013
R463,A046,49 ST-7 AV,JNQRZ6,BMT,40.718697,-74.000977,Canal St,New York,NY,New York County,10013
R463,R214,BAY 50 ST,JNQRZ6,IRT,40.718697,-74.000977,Canal St,New York,NY,New York County,10013
R371,E011,UNION ST,D,BMT,40.613513,-74.000645,New Utrecht Ave,Brooklyn,NY,Kings County,11214
R138,N080,66 ST-LINCOLN,ABCDEFM,IND,40.732251,-74.000559,6th Ave,New York,NY,New York County,10011
R138,N083,BAY PKY-22 AV,ABCDEFM,IND,40.732251,-74.000559,6th Ave,New York,NY,New York County,10011
R118,A066,5 AV-BRYANT PK,JNQRZ6,BMT,40.718233,-74.000323,Canal St,New York,NY,New York County,10013
R370,E009,72 ST,D,BMT,40.619588,-73.998842,New Utrecht Ave,Brooklyn,NY,Kings County,11228
R373,E013,59 ST-COLUMBUS,D,BMT,40.604798,-73.998456,86th St,Brooklyn,NY,Kings County,11214
R105,R127,DEKALB AV,123FLM,IRT,40.738007,-73.998381,W 14th St,New York,NY,New York County,10011
R105,R128,33 ST,123FLM,IRT,40.738007,-73.998381,W 14th St,New York,NY,New York County,10011
R278,C016,1 AV,R,BMT,40.660481,-73.998059,25th St,Brooklyn,NY,Kings County,11232
R111,N076,7 AV-53 ST,CE,IND,40.745924,-73.998005,8th Ave,New York,NY,New York County,10011
R111,N075,47-50 ST-ROCK,CE,IND,40.745924,-73.998005,8th Ave,New York,NY,New York County,10011
R111,N077,STILLWELL AV,CE,IND,40.745924,-73.998005,8th Ave,New York,NY,New York County,10011
R455,C017,KINGS HIGHWAY,R,BMT,40.66043,-73.997944,25th St,Brooklyn,NY,Kings County,11232
R321,R129,57 ST-7 AV,1,IRT,40.741096,-73.997877,W 18th St,New York,NY,New York County,10011
R321,R130,NEVINS ST,1,IRT,40.741096,-73.997877,W 18th St,New York,NY,New York County,10011
R086,A041,7 AV-PARK SLOPE,NR,BMT,40.724332,-73.997684,Broadway,New York,NY,New York County,10012
R086,A042,CHURCH AV,NR,BMT,40.724332,-73.997684,Broadway,New York,NY,New York County,10012
R322,R215,15 ST-PROSPECT,6,IRT,40.722397,-73.997211,Spring St,New York,NY,New York County,10012
R322,R216,AV U,6,IRT,40.722397,-73.997211,Spring St,New York,NY,New York County,10012
R163,H003,DITMAS AV,FLM123,BMT,40.737348,-73.9969,W 14th St,New York,NY,New York County,10011
R163,N512,57 ST,FLM123,IND,40.737348,-73.9969,W 14th St,New York,NY,New York County,10011
R163,N510,ATLANTIC AV,FLM123,IND,40.737348,-73.9969,W 14th St,New York,NY,New York County,10011
R163,N511,PACIFIC ST,FLM123,IND,40.737348,-73.9969,W 14th St,New York,NY,New York County,10011
R163,N513,42 ST-GRD CNTRL,FLM123,IND,40.737348,-73.9969,W 14th St,New York,NY,New York County,10011
R545,PTH11,W 8 ST-AQUARIUM,1,PTH,40.737434,-73.996785,6th Ave,New York,NY,New York County,10011
R398,D005,AV I,ND,BMT,40.625419,-73.996632,62nd St,Brooklyn,NY,Kings County,11219
R398,D006,22 AV-BAY PKY,ND,BMT,40.625419,-73.996632,62nd St,Brooklyn,NY,Kings County,11219
R461,N519,5 AV-53 ST,BDFQ6,IND,40.725297,-73.996204,E Houston St,New York,NY,New York County,10012
R461,N519A,NEPTUNE AV,BDFQ6,IND,40.725297,-73.996204,E Houston St,New York,NY,New York County,10012
R270,N536,AV X,FG,IND,40.673714,-73.996139,9th St,Brooklyn,NY,Kings County,11215
R194,R217A,AV N,6DF,IRT,40.725665,-73.995645,Crosby St,New York,NY,New York County,10012
R190,R131,LAFAYETTE AV,1,IRT,40.744071,-73.995624,W 23rd St,New York,NY,New York County,10011
R190,R132,5 AV-59 ST,1,IRT,40.744071,-73.995624,W 23rd St,New York,NY,New York County,10011
R247,E005,AV P,D,BMT,40.631412,-73.995473,New Utrecht Ave,Brooklyn,NY,Kings County,11219
R220,N535,7 AV,FG,IND,40.680231,-73.99498,Smith St,Brooklyn,NY,Kings County,11231
R220,N534,96 ST,FG,IND,40.680231,-73.99498,Smith St,Brooklyn,NY,Kings County,11231
R234,E004,81 ST-MUSEUM,D,BMT,40.636232,-73.994765,New Utrecht Ave,Brooklyn,NY,Kings County,11219
R368,E001,51 ST,D,BMT,40.646343,-73.994551,New Utrecht Ave,Brooklyn,NY,Kings County,11219
R369,E003,GRAND ARMY PLAZ,D,BMT,40.640872,-73.994229,New Utrecht Ave,Brooklyn,NY,Kings County,11219
R240,N520,LEXINGTON-53 ST,BD,IND,40.718542,-73.994164,Grand St,New York,NY,New York County,10002
R311,A064,OCEAN PARKWAY,JZ,BMT,40.720315,-73.994014,Delancey St,New York,NY,New York County,10002
R374,E014,103 ST,D,BMT,40.601898,-73.993821,22nd Ave,Brooklyn,NY,Kings County,11214
R012,N067,LEXINGTON AV,ACE,IND,40.752247,-73.993456,8th Ave,New York,NY,New York County,10001
R012,N065,CLINTON-WASH AV,ACE,IND,40.752247,-73.993456,8th Ave,New York,NY,New York County,10001
R012,N068,110 ST-CATHEDRL,ACE,IND,40.752247,-73.993456,8th Ave,New York,NY,New York County,10001
R012,N070,BEVERLEY ROAD,ACE,IND,40.752247,-73.993456,8th Ave,New York,NY,New York County,10001
R012,N072,EASTERN PKWY,ACE,IND,40.752247,-73.993456,8th Ave,New York,NY,New York County,10001
R013,N071,116 ST-COLUMBIA,ACE,IND,40.752247,-73.993456,8th Ave,New York,NY,New York County,10001
R013,N069,68ST-HUNTER COL,ACE,IND,40.752247,-73.993456,8th Ave,New York,NY,New York County,10001
R013,N073,RIT-MANHATTAN,ACE,IND,40.752247,-73.993456,8th Ave,New York,NY,New York County,10001
R272,R133,CORTELYOU ROAD,1,IRT,40.747224,-73.99336,7th Ave,New York,NY,New York County,10001
R272,R134,NEWKIRK AV,1,IRT,40.747224,-73.99336,7th Ave,New York,NY,New York County,10001
R293,R138,PROSPECT PARK,123ACE,IRT,40.750264,-73.992984,W 31st St,New York,NY,New York County,10001
R293,R142,BRIGHTON BEACH,123ACE,IRT,40.750264,-73.992984,W 31st St,New York,NY,New York County,10001
R542,PTH12,AV H,1,PTH,40.742933,-73.992909,W 23rd St,New York,NY,New York County,10011
R224,R600,PARKSIDE AV,23,IRT,40.697356,-73.992888,Clark St,Brooklyn,NY,Kings County,11201
R454,C015,AV J,R,BMT,40.665405,-73.992877,4th Ave,Brooklyn,NY,Kings County,11215
R246,C014,CLASSON AV,R,BMT,40.665438,-73.992856,4th Ave,Brooklyn,NY,Kings County,11215
R203,N509,AV M,FM,IND,40.742868,-73.99277,W 23rd St,New York,NY,New York County,10010
R453,N508,BOTANIC GARDEN,FM,IND,40.742981,-73.992727,6th Ave,New York,NY,New York County,10010
R085,A038,125 ST,NR,BMT,40.730348,-73.992705,Broadway,New York,NY,New York County,10003
R085,A039,CATHEDRL-110 ST,NR,BMT,40.730348,-73.992705,Broadway,New York,NY,New York County,10003
R031,R141,FRANKLIN AV,123,IRT,40.750329,-73.991096,7th Ave,New York,NY,New York County,10001
R031,R135,MARCY AV,123,IRT,40.750329,-73.991096,7th Ave,New York,NY,New York County,10001
R031,R137,BEDFORD AV,123,IRT,40.750329,-73.991096,7th Ave,New York,NY,New York County,10001
R031,R139,NECK ROAD,123,IRT,40.750329,-73.991096,7th Ave,New York,NY,New York County,10001
R160,R219,116 ST,6,IRT,40.730056,-73.991042,Lafayette St,New York,NY,New York County,10003
R160,R220,GREENPOINT AV,6,IRT,40.730056,-73.991042,Lafayette St,New York,NY,New York County,10003
R129,N532,SHEEPSHEAD BAY,FG,IND,40.686154,-73.990881,Smith St,Brooklyn,NY,Kings County,11201
R129,N531,RIT-ROOSEVELT,FG,IND,40.686154,-73.990881,Smith St,Brooklyn,NY,Kings County,11201
R129,N533,137 ST-CITY COL,FG,IND,40.686154,-73.990881,Smith St,Brooklyn,NY,Kings County,11201
R170,A035,VERNON/JACKSON,LNQR456,BMT,40.734836,-73.990688,E 14th St,New York,NY,New York County,10003
R170,A033,HEWES ST,456LNQR,BMT,40.734836,-73.990688,E 14th St,New York,NY,New York County,10003
R170,A034,BEDFORD/NOSTRAN,LNQR456,BMT,40.734836,-73.990688,E 14th St,New York,NY,New York County,10003
R170,A036,ROOSEVELT IS,LNQR456,BMT,40.734836,-73.990688,E 14th St,New York,NY,New York County,10003
R170,A037,110 ST-CPN,LNRQ456,BMT,40.734836,-73.990688,E 14th St,New York,NY,New York County,10003
R170,R221,LORIMER ST,LNQR456,IRT,40.734836,-73.990688,E 14th St,New York,NY,New York County,10003
R252,N100,METROPOLITAN AV,AC,IND,40.699316,-73.990474,Cadman Plz E,Brooklyn,NY,Kings County,11201
R252,N101,NASSAU AV,AC,IND,40.699316,-73.990474,Cadman Plz E,Brooklyn,NY,Kings County,11201
R392,D008,PRESIDENT ST,N,BMT,40.620728,-73.990388,63rd St,Brooklyn,NY,Kings County,11204
R257,N529,STERLING ST,F,IND,40.713647,-73.990152,Rutgers St,New York,NY,New York County,10002
R257,N528,NOSTRAND AV,F,IND,40.713647,-73.990152,Rutgers St,New York,NY,New York County,10002
R108,C001,145 ST,2345R,BMT,40.692404,-73.990151,Joralemon St,Brooklyn,NY,Kings County,11201
R108,R602,BROADWAY,2345R,IRT,40.692404,-73.990151,Joralemon St,Brooklyn,NY,Kings County,11201
R108,R601A,FLUSHING AV,R2345,IRT,40.692404,-73.990151,Joralemon St,Brooklyn,NY,Kings County,11201
R108,R604,WINTHROP ST,2345R,IRT,40.692404,-73.990151,Joralemon St,Brooklyn,NY,Kings County,11201
R300,N523,VAN ALSTON-21ST,F,IND,40.723291,-73.989873,E Houston St,New York,NY,New York County,10002
R300,N521,MYRTLE-WILLOUGH,F,IND,40.723291,-73.989873,E Houston St,New York,NY,New York County,10002
R010,N062A,BEVERLY ROAD,ACENQRS1237,IND,40.757303,-73.989787,8th Ave,New York,NY,New York County,10036
R010,N060,HUNTERS PT AV,ACENQRS1237,IND,40.757303,-73.989787,8th Ave,New York,NY,New York County,10036
R011,N063A,135 ST,ACENQRS1237,IND,40.757303,-73.989787,8th Ave,New York,NY,New York County,10036
R011,N062,FLATBUSH AV,ACENQRS1237,IND,40.757303,-73.989787,8th Ave,New York,NY,New York County,10036
R011,N063,COURT SQ,ACENQRS1237,IND,40.757303,-73.989787,8th Ave,New York,NY,New York County,10036
R083,A031,COURT SQ-23 ST,NR,BMT,40.741006,-73.989315,Broadway,New York,NY,New York County,10010
R083,A030,157 ST,NR,BMT,40.741006,-73.989315,Broadway,New York,NY,New York County,10010
R258,C012,110 ST,DFGMNR,BMT,40.67032,-73.988757,4th Ave,Brooklyn,NY,Kings County,11215
R258,N537,GRAHAM AV,DFGMNR,IND,40.67032,-73.988757,4th Ave,Brooklyn,NY,Kings County,11215
R082,A029,21 ST,NR,BMT,40.745574,-73.988682,Broadway,New York,NY,New York County,10001
R082,A027,KINGSTON AV,NR,BMT,40.745574,-73.988682,Broadway,New York,NY,New York County,10001
R541,PTH17,155 ST,1,PTH,40.748931,-73.988113,Broadway,New York,NY,New York County,10001
R022,A022,KINGSTON-THROOP,BDFMNQR,BMT,40.749533,-73.987899,Broadway,New York,NY,New York County,10001
R023,A025,QUEENSBORO PLZ,BDFMNQR,BMT,40.749533,-73.987899,Broadway,New York,NY,New York County,10001
R022,N506,168 ST-BROADWAY,BDFMNQR,IND,40.749533,-73.987899,Broadway,New York,NY,New York County,10001
R022,N505,MONTROSE AV,BDFMNQR,IND,40.749533,-73.987899,Broadway,New York,NY,New York County,10001
R023,N507,163 ST-AMSTERDM,BDFMNQR,IND,40.749533,-73.987899,Broadway,New York,NY,New York County,10001
R142,A061,175 ST,FJMZ,BMT,40.71838,-73.987813,Delancey St,New York,NY,New York County,10002
R142,N525,181 ST,FJMZ,IND,40.71838,-73.987813,Delancey St,New York,NY,New York County,10002
R142,N526,QUEENS PLAZA,FJMZ,IND,40.71838,-73.987813,Delancey St,New York,NY,New York County,10002
R127,N103,148 ST-LENOX,ACF,IND,40.692338,-73.987342,Jay St,Brooklyn,NY,Kings County,11201
R127,N102,MYRTLE AV,ACF,IND,40.692338,-73.987342,Jay St,Brooklyn,NY,Kings County,11201
R330,H005,190 ST,L,BMT,40.733243,-73.987169,3rd Ave,New York,NY,New York County,10003
R330,H006,MORGAN AV,L,BMT,40.733243,-73.987169,3rd Ave,New York,NY,New York County,10003
R399,E015,CROWN HTS-UTICA,D,BMT,40.597873,-73.986955,86th St,Brooklyn,NY,Kings County,11214
R301,N530,BEEBE-39 AV,F,IND,40.699756,-73.98689,Jay St,Brooklyn,NY,Kings County,11201
R032,A021,33 ST/RAWSON ST,1237ACENQRS,BMT,40.755905,-73.986504,W 42nd St,New York,NY,New York County,10036
R032,R145,UTICA AV,1237ACENQRS,IRT,40.755905,-73.986504,W 42nd St,New York,NY,New York County,10036
R032,R143,138 ST-GR CONC,ACENQRS1237,IRT,40.755905,-73.986504,W 42nd St,New York,NY,New York County,10036
R032,R146,191 ST,1237ACENQRS,IRT,40.755905,-73.986504,W 42nd St,New York,NY,New York County,10036
R033,R151,WASHINGTON-36 A,1237ACENQRS,IRT,40.755905,-73.986504,W 42nd St,New York,NY,New York County,10036
R033,R148,KOSCIUSZKO ST,1237ACENQRS,IRT,40.755905,-73.986504,W 42nd St,New York,NY,New York County,10036
R033,R150,CENTRAL AV,1237ACENQRS,IRT,40.755905,-73.986504,W 42nd St,New York,NY,New York County,10036
R033,R153,DYCKMAN-200 ST,1237ACENQRS,IRT,40.755905,-73.986504,W 42nd St,New York,NY,New York County,10036
R033,R147,149 ST-GR CONC,1237ACENQRS,IRT,40.755905,-73.986504,W 42nd St,New York,NY,New York County,10036
R131,R227,138 ST-3 AV,6,IRT,40.740088,-73.986429,Park Ave S,New York,NY,New York County,10010
R131,R227A,161 ST-YANKEE,6,IRT,40.740088,-73.986429,Park Ave S,New York,NY,New York County,10010
R131,R226,DYCKMAN ST,6,IRT,40.740088,-73.986429,Park Ave S,New York,NY,New York County,10010
R131,R226A,BROADWAY-31 ST,6,IRT,40.740088,-73.986429,Park Ave S,New York,NY,New York County,10010
R188,N057,40 ST-LOWERY ST,CE,IND,40.762439,-73.985989,8th Ave,New York,NY,New York County,10019
R188,N056,JEFFERSON ST,CE,IND,40.762439,-73.985989,8th Ave,New York,NY,New York County,10019
R089,C003,SUTTER AV,R,BMT,40.692182,-73.985935,Willoughby St,Brooklyn,NY,Kings County,11201
R089,C004,GATES AV,R,BMT,40.692182,-73.985935,Willoughby St,Brooklyn,NY,Kings County,11201
R217,N108,GRAND-30 AV,ACG,IND,40.688465,-73.985474,Schermerhorn St,Brooklyn,NY,Kings County,11201
R393,D009,167 ST,N,BMT,40.617373,-73.985088,20th Ave,Brooklyn,NY,Kings County,11204
R225,R606,RALPH AV,23,IRT,40.690547,-73.985066,Fulton St,Brooklyn,NY,Kings County,11201
R456,R605,STEINWAY ST,23,IRT,40.690545,-73.985065,Fulton St,Brooklyn,NY,Kings County,11201
R021,N503,INWOOD-207 ST,BDFM7,IND,40.754198,-73.984573,6th Ave,New York,NY,New York County,10018
R021,N502,KNICKERBOCKER,BDFM7,IND,40.754198,-73.984573,6th Ave,New York,NY,New York County,10018
R021,N504,BROOK AV,BDFM7,IND,40.754198,-73.984573,6th Ave,New York,NY,New York County,10018
R143,R228,207 ST,6,IRT,40.743095,-73.984251,Park Ave S,New York,NY,New York County,10016
R143,R229,46 ST-BLISS ST,6,IRT,40.743095,-73.984251,Park Ave S,New York,NY,New York County,10016
R143,R230,170 ST,6,IRT,40.743095,-73.984251,Park Ave S,New York,NY,New York County,10016
R081,A015,149 ST-3 AV,NQR,BMT,40.760139,-73.984112,7th Ave,New York,NY,New York County,10019
R081,A013,HOYT ST-ASTORIA,NQR,BMT,40.760139,-73.984112,7th Ave,New York,NY,New York County,10019
R081,A014,HALSEY ST,NQR,BMT,40.760139,-73.984112,7th Ave,New York,NY,New York County,10019
R081,A016,SARATOGA AV,NQR,BMT,40.760139,-73.984112,7th Ave,New York,NY,New York County,10019
R116,R154,215 ST,1,IRT,40.761675,-73.983908,Broadway,New York,NY,New York County,10019
R116,R155,MT EDEN AV,1,IRT,40.761675,-73.983908,Broadway,New York,NY,New York County,10019
R400,E016,CYPRESS AV,D,BMT,40.588879,-73.983629,Stillwell Ave,Brooklyn,NY,Kings County,11223
R231,C010,46 ST,R,BMT,40.677302,-73.983135,4th Ave,Brooklyn,NY,Kings County,11215
R231,C011,176 ST,R,BMT,40.677302,-73.983135,4th Ave,Brooklyn,NY,Kings County,11215
R164,R160A,52 ST-LINCOLN,1,IRT,40.773424,-73.982234,Broadway,New York,NY,New York County,10023
R164,R159,DITMARS BL-31 S,1,IRT,40.773424,-73.982234,Broadway,New York,NY,New York County,10023
R164,R160,ROCKAWAY AV,1,IRT,40.773424,-73.982234,Broadway,New York,NY,New York County,10023
R394,D010,CHAUNCEY ST,N,BMT,40.612006,-73.982009,W 7th St,Brooklyn,NY,Kings County,11204
R394,D011,MARBLE HILL-225,N,BMT,40.612006,-73.982009,W 7th St,Brooklyn,NY,Kings County,11204
R054,R501,JACKSON AV,7BDFM,IRT,40.753824,-73.981966,W 42nd St,New York,NY,New York County,10036
R054,R500,SENECA AV,7BDFM,IRT,40.753824,-73.981966,W 42nd St,New York,NY,New York County,10036
R452,R161B,BURNSIDE AV,123,IRT,40.778575,-73.981912,Broadway,New York,NY,New York County,10023
R452,R161A,E 143 ST,123,IRT,40.778575,-73.981912,Broadway,New York,NY,New York County,10023
R084,N049,NORTHERN BLVD,1ABCD,IND,40.76811,-73.981891,Columbus Cir,New York,NY,New York County,10023
R084,N051,BUSHWICK AV,ABCD1,IND,40.76811,-73.981891,Columbus Cir,New York,NY,New York County,10023
R084,R158,TREMONT AV,1ABCD,IRT,40.76811,-73.981891,Columbus Cir,New York,NY,New York County,10023
R099,C008,231 ST,BDNQR,BMT,40.690612,-73.981848,Flatbush Ave Exn,Brooklyn,NY,Kings County,11201
R176,R231,BROADWAY-ENY,6,IRT,40.746119,-73.981826,E 33rd St,New York,NY,New York County,10016
R176,R231A,E 149 ST,6,IRT,40.746119,-73.981826,E 33rd St,New York,NY,New York County,10016
R176,R232,WILSON AV,6,IRT,40.746119,-73.981826,E 33rd St,New York,NY,New York County,10016
R176,R232A,183 ST,6,IRT,40.746119,-73.981826,E 33rd St,New York,NY,New York County,10016
R248,H007,FOREST AV,L,BMT,40.730901,-73.981719,E 14th St,New York,NY,New York County,10009
R248,H008,61 ST/WOODSIDE,L,BMT,40.730901,-73.981719,E 14th St,New York,NY,New York County,10009
R113,N301,JUNIUS ST,BDE,IND,40.762877,-73.98159,W 53rd St,New York,NY,New York County,10019
R113,N300,ROCKAWAY PKY,BDE,IND,40.762877,-73.98159,W 53rd St,New York,NY,New York County,10019
R020,N500,FORDHAM ROAD,BDFM,IND,40.758652,-73.981311,W 48th St,New York,NY,New York County,10036
R020,N501,238 ST,BDFM,IND,40.758652,-73.981311,W 48th St,New York,NY,New York County,10036
R020,N501A,182-183 ST,BDFM,IND,40.758652,-73.981311,W 48th St,New York,NY,New York County,10036
R151,G001,LIVONIA AV,DFNQ,BMT,40.577423,-73.981225,Stillwell Ave,Brooklyn,NY,Kings County,11224
R151,G009,EAST 105 ST,DFNQ,BMT,40.577423,-73.981225,Stillwell Ave,Brooklyn,NY,Kings County,11224
R395,D012,NEW LOTS AV,N,BMT,40.603967,-73.980668,W 8th St,Brooklyn,NY,Kings County,11223
R080,A010,ALABAMA AV,NQR,BMT,40.764755,-73.980646,7th Ave,New York,NY,New York County,10019
R080,A011,242 ST,NQR,BMT,40.764755,-73.980646,7th Ave,New York,NY,New York County,10019
R056,R608,65 ST,2345,IRT,40.688269,-73.980453,Flatbush Ave,Brooklyn,NY,Kings County,11217
R056,R609,KINGSBRIDGE RD,2345,IRT,40.688269,-73.980453,Flatbush Ave,Brooklyn,NY,Kings County,11217
R288,N539A,INTERVALE-163,FG,IND,40.666276,-73.980324,9th St,Brooklyn,NY,Kings County,11215
R166,R162,LIBERTY AV,1,IRT,40.783872,-73.979938,Broadway,New York,NY,New York County,10024
R166,R163,69 ST-FISK AV,1,IRT,40.783872,-73.979938,Broadway,New York,NY,New York County,10024
R204,N546,LONGWOOD AV,FG,IND,40.644039,-73.979541,Mcdonald Ave,Brooklyn,NY,Kings County,11218
R204,N545,FRESH POND ROAD,FG,IND,40.644039,-73.979541,Mcdonald Ave,Brooklyn,NY,Kings County,11218
R241,N542,PENNSYLVANIA AV,FG,IND,40.660376,-73.979509,16th St,Brooklyn,NY,Kings County,11215
R241,N541,SIMPSON ST,FG,IND,40.660376,-73.979509,16th St,Brooklyn,NY,Kings County,11215
R396,D015,FREEMAN ST,N,BMT,40.597482,-73.979359,W 8th St,Brooklyn,NY,Kings County,11223
R397,D016,VAN SICLEN AV,N,BMT,40.592676,-73.978243,86th St,Brooklyn,NY,Kings County,11223
R420,N548,ROOSEVELT AV,F,IND,40.63615,-73.978179,Mcdonald Ave,Brooklyn,NY,Kings County,11218
R420,N547,74 ST-BROADWAY,F,IND,40.63615,-73.978179,Mcdonald Ave,Brooklyn,NY,Kings County,11218
R302,N600,HUNTS POINT AV,F,IND,40.763625,-73.977449,W 56th St,New York,NY,New York County,10019
R057,B001,BEDFORD PARK BL,2345BDNQR,BMT,40.684063,-73.977417,Atlantic Ave,Brooklyn,NY,Kings County,11217
R057,B002,174 ST,BDNQR2345,BMT,40.684063,-73.977417,Atlantic Ave,Brooklyn,NY,Kings County,11217
R057,C009,WHITLOCK AV,BDNQR2345,BMT,40.684063,-73.977417,Atlantic Ave,Brooklyn,NY,Kings County,11217
R057,R610,CLEVELAND ST,2345BDNQR,IRT,40.684063,-73.977417,Atlantic Ave,Brooklyn,NY,Kings County,11217
R242,N549,MOSHOLU PARKWAY,F,IND,40.629881,-73.977149,Webster Ave,Brooklyn,NY,Kings County,11230
R242,N550,82 ST-JACKSON H,F,IND,40.629881,-73.977149,Webster Ave,Brooklyn,NY,Kings County,11230
R045,R236,ELMHURST AV,4567S,IRT,40.751849,-73.976945,E 42nd St,New York,NY,New York County,10017
R045,R233,SHEPHERD AV,4567S,IRT,40.751849,-73.976945,E 42nd St,New York,NY,New York County,10017
R046,R238,NORWOOD AV,4567S,IRT,40.751849,-73.976945,E 42nd St,New York,NY,New York County,10017
R046,R237,E TREMONT AV,4567S,IRT,40.751849,-73.976945,E 42nd St,New York,NY,New York County,10017
R046,R238A,ELDER AV,4567S,IRT,40.751849,-73.976945,E 42nd St,New York,NY,New York County,10017
R047,R240,NORWOOD-205 ST,4567S,IRT,40.751849,-73.976945,E 42nd St,New York,NY,New York County,10017
R047,R237B,WOODLAWN ROAD,4567S,IRT,40.751849,-73.976945,E 42nd St,New York,NY,New York County,10017
R048,R241A,GRAND AV-NEWTON,4567S,IRT,40.751849,-73.976945,E 42nd St,New York,NY,New York County,10017
R281,N046,90 ST-ELMHURST,BC,IND,40.775545,-73.976398,Central Park W,New York,NY,New York County,10023
R167,R164,MORRISON AV,1,IRT,40.788844,-73.97599,Broadway,New York,NY,New York County,10024
R167,R165,CRESCENT ST,1,IRT,40.788844,-73.97599,Broadway,New York,NY,New York County,10024
R167,R166,E 180 ST,1,IRT,40.788844,-73.97599,Broadway,New York,NY,New York County,10024
R312,G011,CYPRESS HILLS,FQ,BMT,40.576152,-73.975925,W 8th St,Brooklyn,NY,Kings County,11224
R312,G015,EUCLID AV,FQ,BMT,40.576152,-73.975925,W 8th St,Brooklyn,NY,Kings County,11224
R289,N543,LGA AIRPORT CTB,FG,IND,40.650722,-73.975818,Prospect Ave,Brooklyn,NY,Kings County,11218
R289,N544,JUNCTION BLVD,FG,IND,40.650722,-73.975818,Prospect Ave,Brooklyn,NY,Kings County,11218
R421,N551,WOODHAVN BLVD,F,IND,40.625305,-73.975732,Mcdonald Ave,Brooklyn,NY,Kings County,11230
R422,N553,BRONX PARK EAST,F,IND,40.620907,-73.975453,22nd Ave,Brooklyn,NY,Kings County,11204
R318,N422,ST LAWRENCE AV,G,IND,40.68713,-73.975346,Lafayette Ave,Brooklyn,NY,Kings County,11217
R015,N303,PELHAM PARKWAY,EM,IND,40.760179,-73.975196,E 53rd St,New York,NY,New York County,10022
R015,N304,ALLERTON AV,EM,IND,40.760179,-73.975196,E 53rd St,New York,NY,New York County,10022
R058,R617,ELDERTS LANE,23,IRT,40.680801,-73.975132,Flatbush Ave,Brooklyn,NY,Kings County,11217
R058,R618,BURKE AV,23,IRT,40.680801,-73.975132,Flatbush Ave,Brooklyn,NY,Kings County,11217
R426,N562,GUN HILL ROAD,F,IND,40.580992,-73.974531,W 6th St,Brooklyn,NY,Kings County,11224
R271,N561,GRANT AV,F,IND,40.589547,-73.974295,Shell Rd,Brooklyn,NY,Kings County,11223
R423,N555,219 ST,F,IND,40.615174,-73.974166,Mcdonald Ave,Brooklyn,NY,Kings County,11230
R423,N554,103 ST-CORONA,F,IND,40.615174,-73.974166,Mcdonald Ave,Brooklyn,NY,Kings County,11230
R283,N110,63 DR-REGO PARK,C,IND,40.68617,-73.973908,Fulton St,Brooklyn,NY,Kings County,11217
R079,A006,MORRIS PARK,NQR,BMT,40.764909,-73.973372,Central Park S,New York,NY,New York County,10019
R079,A007,E 177 ST-PARKCH,NQR,BMT,40.764909,-73.973372,Central Park S,New York,NY,New York County,10019
R425,N559,225 ST,F,IND,40.596065,-73.973329,Mcdonald Ave,Brooklyn,NY,Kings County,11223
R424,N556,FOREST PARKWAY,F,IND,40.609147,-73.972986,Mcdonald Ave,Brooklyn,NY,Kings County,11230
R171,B004,HUDSON-80 ST,BQ,BMT,40.677172,-73.972514,Flatbush Ave,Brooklyn,NY,Kings County,11238
R168,R168A,233 ST,123,IRT,40.79388,-73.972363,Broadway,New York,NY,New York County,10025
R168,R168,111 ST,123,IRT,40.79388,-73.972363,Broadway,New York,NY,New York County,10025
R130,N557,NEREID AV,F,IND,40.603234,-73.972342,Mcdonald Ave,Brooklyn,NY,Kings County,11223
R130,N558,67 AV,F,IND,40.603234,-73.972342,Mcdonald Ave,Brooklyn,NY,Kings County,11223
R187,N044,BOYD-88 ST,BC,IND,40.781435,-73.972149,W 79st Transverse Rd,New York,NY,New York County,10024
R187,N045,CASTLE HILL AV,BC,IND,40.781435,-73.972149,W 79st Transverse Rd,New York,NY,New York County,10024
R049,R243,WAKEFIELD-241,6,IRT,40.757108,-73.97187,E 51st St,New York,NY,New York County,10022
R049,R242,ZEREGA AV,6,IRT,40.757108,-73.97187,E 51st St,New York,NY,New York County,10022
R049,R242A,METS-WILLETS PT,6,IRT,40.757108,-73.97187,E 51st St,New York,NY,New York County,10022
R059,R619,FOREST HILLS-71,23,IRT,40.675219,-73.971012,Flatbush Ave,Brooklyn,NY,Kings County,11238
R016,N305A,104 ST,EM6,IND,40.75753,-73.969102,E 53rd St,New York,NY,New York County,10022
R017,N306,ROCKAWAY BLVD,EM6,IND,40.75753,-73.969102,E 53rd St,New York,NY,New York County,10022
R017,N305,WESTCHESTER SQ,EM6,IND,40.75753,-73.969102,E 53rd St,New York,NY,New York County,10022
R186,N043,BAYCHESTER AV,BC,IND,40.785822,-73.968952,Central Park W,New York,NY,New York County,10024
R186,N042,OXFORD-104 ST,BC,IND,40.785822,-73.968952,Central Park W,New York,NY,New York County,10024
R264,B032,ROCKAWAY PK 116,Q,BMT,40.576298,-73.968523,Brighton Beach Ave,Brooklyn,NY,Kings County,11235
R264,B034,75 AV,Q,BMT,40.576298,-73.968523,Brighton Beach Ave,Brooklyn,NY,Kings County,11235
R191,R170,MIDDLETOWN ROAD,1,IRT,40.799354,-73.968329,Broadway,New York,NY,New York County,10025
R050,A004,AQUEDUCT-N CNDT,456NQR,BMT,40.762796,-73.967686,E 60th St,New York,NY,New York County,10022
R051,A002,AQUEDUCT TRACK,456NQR,BMT,40.762796,-73.967686,E 60th St,New York,NY,New York County,10022
R050,R244,BUHRE AV,456NQR,IRT,40.762796,-73.967686,E 60th St,New York,NY,New York County,10022
R050,R244A,GREENWOOD-111,456NQR,IRT,40.762796,-73.967686,E 60th St,New York,NY,New York County,10022
R051,R245,UNION TPK-KEW G,456NQR,IRT,40.762796,-73.967686,E 60th St,New York,NY,New York County,10022
R051,R245A,DYRE AV,456NQR,IRT,40.762796,-73.967686,E 60th St,New York,NY,New York County,10022
R317,N420B,HOWARD BCH-JFK,G,IND,40.688123,-73.966742,Lafayette Ave,Brooklyn,NY,Kings County,11238
R192,R172,JFK HOWARD BCH,1,IRT,40.804032,-73.966742,Broadway,New York,NY,New York County,10025
R192,R171,MAIN ST,1,IRT,40.804032,-73.966742,Broadway,New York,NY,New York County,10025
R319,N601,121 ST,F,IND,40.764763,-73.966291,Lexington Ave,New York,NY,New York County,10065
R284,N111,PELHAM BAY PARK,C,IND,40.683263,-73.965838,Fulton St,Brooklyn,NY,Kings County,11238
R284,N112A,ORCHARD BEACH,C,IND,40.683263,-73.965838,Fulton St,Brooklyn,NY,Kings County,11238
R251,N040,BEACH 105 ST,BC,IND,40.791654,-73.964682,Central Park W,New York,NY,New York County,10025
R251,N039,LEFFERTS BLVD,BC,IND,40.791654,-73.964682,Central Park W,New York,NY,New York County,10025
R262,B017,VAN WYCK BLVD,BQ,BMT,40.643982,-73.96451,Beverley Rd,Brooklyn,NY,Kings County,11226
R060,R621,BEACH 98 ST,23,IRT,40.672013,-73.96436,Eastern Pkwy,Brooklyn,NY,Kings County,11238
R159,R173,JAMAICA-VAN WYC,1,IRT,40.80819,-73.964124,W 116th St,New York,NY,New York County,10027
R177,R246,BROAD CHANNEL,6,IRT,40.768143,-73.964016,Lexington Ave,New York,NY,New York County,10065
R468,TRAM1,BEACH 90 ST,R,RIT,40.761268,-73.964016,E 60th St,New York,NY,New York County,10022
R184,B018,SUTPHIN BLVD,BQ,BMT,40.640905,-73.963866,E 16th St,Brooklyn,NY,Kings County,11226
R098,B016,PARSONS BLVD,BQ,BMT,40.650494,-73.962836,St Pauls Pl,Brooklyn,NY,Kings County,11226
R098,B015,JAMAICA CENTER,BQ,BMT,40.650494,-73.962836,St Pauls Pl,Brooklyn,NY,Kings County,11226
R149,B019,BEACH 67 ST,BQ,BMT,40.635059,-73.962793,Newkirk Plz,Brooklyn,NY,Kings County,11226
R196,B012,169 ST,BQS,BMT,40.661596,-73.962193,Flatbush Ave,Brooklyn,NY,Kings County,11225
R196,B013,BEACH 60 ST,BQS,BMT,40.661596,-73.962193,Flatbush Ave,Brooklyn,NY,Kings County,11225
R172,B029,JAMAICA-179 ST,BQ,BMT,40.577961,-73.961806,Brighton 6th St,Brooklyn,NY,Kings County,11235
R172,B031,JFK JAMAICA CT1,BQ,BMT,40.577961,-73.961806,Brighton 6th St,Brooklyn,NY,Kings County,11235
R263,B020,JFK JAMAICA CT2,BQ,BMT,40.629164,-73.961678,E 15th St,Brooklyn,NY,Kings County,11230
R314,N037,BEACH 44 ST,BC,IND,40.796105,-73.961399,Central Park W,New York,NY,New York County,10025
R148,B014,BEACH 36 ST,BQ,BMT,40.655053,-73.961227,Parkside Ave,Brooklyn,NY,Kings County,11226
R228,B021,BEACH 25 ST,BQ,BMT,40.625028,-73.960819,Ave J,Brooklyn,NY,Kings County,11230
R287,N419,FAR ROCKAWAY,G,IND,40.688855,-73.960025,Lafayette Ave,Brooklyn,NY,Kings County,11238
R178,R248,174-175 ST,6,IRT,40.773636,-73.959875,Lexington Ave,New York,NY,New York County,10075
R178,R247,WHITEHALL ST,6,IRT,40.773636,-73.959875,Lexington Ave,New York,NY,New York County,10075
R229,B022,SOUTH FERRY,BQ,BMT,40.617568,-73.95936,E 16th St,Brooklyn,NY,Kings County,11230
R412,B010,WEST COUNTY CTR,S2345,BMT,40.670499,-73.958759,Eastern Pkwy,Brooklyn,NY,Kings County,11225
R034,R174,METROCARD BUS 1,1,IRT,40.815596,-73.958395,Broadway,New York,NY,New York County,10027
R334,N035,METROCARD BUS 2,BC,IND,40.800637,-73.958201,Cathedral Pkwy,New York,NY,New York County,10026
R334,N034,METROCARD VAN-1,BC,IND,40.800637,-73.958201,Cathedral Pkwy,New York,NY,New York County,10026
R123,R622,METROCARD VAN-2,2345S,IRT,40.670711,-73.958051,Eastern Pkwy,Brooklyn,NY,Kings County,11225
R411,B009,METROCARD VAN-3,S,BMT,40.67491,-73.957794,Prospect Pl,Brooklyn,NY,Kings County,11238
R211,B024,NYC & CO - 7 AV,BQ,BMT,40.608691,-73.957772,Kings Hwy,Brooklyn,NY,Kings County,11229
R211,B023,LIB-HEMPSTEAD,BQ,BMT,40.608691,-73.957772,Kings Hwy,Brooklyn,NY,Kings County,11229
R211,B024A,THIRTY ST,BQ,BMT,40.608691,-73.957772,Kings Hwy,Brooklyn,NY,Kings County,11229
R460,J002,PAVONIA/NEWPORT,JMZ,BMT,40.708377,-73.957751,Broadway,Brooklyn,NY,Kings County,11211
R460,J001,9TH STREET,JMZ,BMT,40.708377,-73.957751,Broadway,Brooklyn,NY,Kings County,11211
R235,H009,NEWARK HW BMEBE,L,BMT,40.717241,-73.956614,N 7th St,Brooklyn,NY,Kings County,11211
R297,N113,NEWARK BM BW,ACS,IND,40.681159,-73.956056,Fulton St,Brooklyn,NY,Kings County,11238
R297,N114,NEWARK C,ACS,IND,40.681159,-73.956056,Fulton St,Brooklyn,NY,Kings County,11238
R150,B025,NEWARK HM HE,BQ,BMT,40.599307,-73.955916,E 16th St,Brooklyn,NY,Kings County,11229
R179,R250,CITY / BUS,456,IRT,40.779485,-73.955541,E 86th St,New York,NY,New York County,10028
R179,R249,LACKAWANNA,456,IRT,40.779485,-73.955541,E 86th St,New York,NY,New York County,10028
R230,B026,,BQ,BMT,40.595234,-73.95509,Gravesend Neck Rd,Brooklyn,NY,Kings County,11229
R333,N030,,BC,IND,40.805072,-73.954833,W 117th St,New York,NY,New York County,10026
R333,N029,,BC,IND,40.805072,-73.954833,W 117th St,New York,NY,New York County,10026
R239,N405,,G,IND,40.731324,-73.954425,Manhattan Ave,Brooklyn,NY,Kings County,11222
R239,N403,,G,IND,40.731324,-73.954425,Manhattan Ave,Brooklyn,NY,Kings County,11222
R136,B027,,BQ,BMT,40.58681,-73.954167,Sheepshead Bay Rd,Brooklyn,NY,Kings County,11235
R136,B028,,BQ,BMT,40.58681,-73.954167,Sheepshead Bay Rd,Brooklyn,NY,Kings County,11235
R469,TRAM2,,R,RIT,40.7574,-73.954006,East Rd,New York,NY,New York County,10044
R169,R176,,1,IRT,40.821994,-73.953674,Broadway,New York,NY,New York County,10031
R169,R175,,1,IRT,40.821994,-73.953674,Broadway,New York,NY,New York County,10031
R276,R504,,7,IRT,40.742624,-73.953545,50th Ave,Long Island City,NY,Queens County,11101
R276,R503,,7,IRT,40.742624,-73.953545,50th Ave,Long Island City,NY,Queens County,11101
R276,R506,,7,IRT,40.742624,-73.953545,50th Ave,Long Island City,NY,Queens County,11101
R352,J003,,JM,BMT,40.706994,-73.953481,Broadway,Brooklyn,NY,Kings County,11211
R269,N417,,G,IND,40.689636,-73.953459,Lafayette Ave,Brooklyn,NY,Kings County,11205
R269,N418,,G,IND,40.689636,-73.953459,Lafayette Ave,Brooklyn,NY,Kings County,11205
R259,N602,,F,IND,40.759123,-73.953266,East Rd,New York,NY,New York County,10044
R102,N026,,ACBD,IND,40.811056,-73.952386,Saint Nicholas Ave,New York,NY,New York County,10027
R102,N025,,ACBD,IND,40.811056,-73.952386,Saint Nicholas Ave,New York,NY,New York County,10027
R323,R301,,23,IRT,40.79911,-73.951807,Lenox Ave,New York,NY,New York County,10026
R268,H012,,GL,BMT,40.713875,-73.951592,Union Ave,Brooklyn,NY,Kings County,11211
R268,N409,,GL,IND,40.713875,-73.951592,Union Ave,Brooklyn,NY,Kings County,11211
R256,N408A,,G,IND,40.724608,-73.951271,Manhattan Ave,Brooklyn,NY,Kings County,11222
R144,R251,,6,IRT,40.785822,-73.95097,Lexington Ave,New York,NY,New York County,10128
R277,R635,,25,IRT,40.667879,-73.950648,Nostrand Ave,Brooklyn,NY,Kings County,11225
R209,R636,,25,IRT,40.662752,-73.950605,Nostrand Ave,Brooklyn,NY,Kings County,11225
R061,R623,,3,IRT,40.669735,-73.950455,Nostrand Ave,Brooklyn,NY,Kings County,11225
R273,R178,,1,IRT,40.826426,-73.950412,W 145th St,New York,NY,New York County,10031
R273,R177,,1,IRT,40.826426,-73.950412,W 145th St,New York,NY,New York County,10031
R299,N412,,G,IND,40.7061,-73.950348,Union Ave,Brooklyn,NY,Kings County,11211
R198,N116,,AC,IND,40.68041,-73.950326,Fulton St,Brooklyn,NY,Kings County,11216
R198,N117,,AC,IND,40.68041,-73.950326,Fulton St,Brooklyn,NY,Kings County,11216
R316,N414,,G,IND,40.700374,-73.950284,Wallabout St,Brooklyn,NY,Kings County,11206
R316,N414A,,G,IND,40.700374,-73.950284,Wallabout St,Brooklyn,NY,Kings County,11206
R451,R637,,25,IRT,40.656648,-73.950198,Nostrand Ave,Brooklyn,NY,Kings County,11225
R360,N401,,G,IND,40.743973,-73.949876,Jackson Ave,Long Island City,NY,Queens County,11101
R324,R303,,23,IRT,40.802098,-73.949625,Lenox Ave,New York,NY,New York County,10026
R324,R302,,23,IRT,40.802098,-73.949625,Lenox Ave,New York,NY,New York County,10026
R109,R639,,25,IRT,40.650843,-73.949575,Nostrand Ave,Brooklyn,NY,Kings County,11226
R286,N415,,G,IND,40.694568,-73.949046,Marcy Ave,Brooklyn,NY,Kings County,11206
R286,N416,,G,IND,40.694568,-73.949046,Marcy Ave,Brooklyn,NY,Kings County,11206
R210,R641,,25,IRT,40.645089,-73.948975,Nostrand Ave,Brooklyn,NY,Kings County,11226
R134,R507,,7,IRT,40.74238,-73.948889,49th Ave,Long Island City,NY,Queens County,11101
R135,R643,,25,IRT,40.639961,-73.948352,Newkirk Ave,Brooklyn,NY,Kings County,11226
R135,R644,,25,IRT,40.639961,-73.948352,Newkirk Ave,Brooklyn,NY,Kings County,11226
R332,N024,,BC,IND,40.817902,-73.947644,Saint Nicholas Ave,New York,NY,New York County,10030
R332,N023,,BC,IND,40.817902,-73.947644,Saint Nicholas Ave,New York,NY,New York County,10030
R332,N022,,BC,IND,40.817902,-73.947644,Saint Nicholas Ave,New York,NY,New York County,10030
R110,R645,,25,IRT,40.632836,-73.947642,Flatbush Ave,Brooklyn,NY,Kings County,11210
R110,R646,,25,IRT,40.632836,-73.947642,Flatbush Ave,Brooklyn,NY,Kings County,11210
R110,R647,,25,IRT,40.632836,-73.947642,Flatbush Ave,Brooklyn,NY,Kings County,11210
R180,R252,,6,IRT,40.790582,-73.947473,Lexington Ave,New York,NY,New York County,10029
R353,J005,,JM,BMT,40.703855,-73.947387,Broadway,Brooklyn,NY,Kings County,11206
R206,R304,,23,IRT,40.808076,-73.945906,Dr Martin Luther King Jr Blvd,New York,NY,New York County,10027
R206,R305,,23,IRT,40.808076,-73.945906,Dr Martin Luther King Jr Blvd,New York,NY,New York County,10027
R346,R508,,7,IRT,40.747029,-73.94537,23rd St,Long Island City,NY,Queens County,11101
R359,N307,,EMG,IND,40.747257,-73.945112,23rd St,Long Island City,NY,Queens County,11101
R359,N400,,EMG,IND,40.747257,-73.945112,23rd St,Long Island City,NY,Queens County,11101
R359,N400A,,EMG,IND,40.747257,-73.945112,23rd St,Long Island City,NY,Queens County,11101
R193,R180,,1,IRT,40.833879,-73.944726,W 157th St,New York,NY,New York County,10032
R193,R179,,1,IRT,40.833879,-73.944726,W 157th St,New York,NY,New York County,10032
R181,R253,,6,IRT,40.795066,-73.944297,Lexington Ave,New York,NY,New York County,10029
R181,R254,,6,IRT,40.795066,-73.944297,Lexington Ave,New York,NY,New York County,10029
R101,N020,,ABCD,IND,40.824787,-73.944232,Saint Nicholas Ave,New York,NY,New York County,10031
R101,N019,,ABCD,IND,40.824787,-73.944232,Saint Nicholas Ave,New York,NY,New York County,10031
R249,H014,,L,BMT,40.71459,-73.944104,Metropolitan Ave,Brooklyn,NY,Kings County,11211
R249,H013,,L,BMT,40.71459,-73.944104,Metropolitan Ave,Brooklyn,NY,Kings County,11211
R303,N603,,F,IND,40.7541,-73.94258,41st Ave,Long Island City,NY,Queens County,11101
R124,R624,,3,IRT,40.669409,-73.942173,Eastern Pkwy,Brooklyn,NY,Kings County,11213
R377,J007,,JM,BMT,40.700244,-73.941658,Broadway,Brooklyn,NY,Kings County,11206
R182,R256,,6,IRT,40.798574,-73.941593,E 116th St,New York,NY,New York County,10029
R182,R257,,6,IRT,40.798574,-73.941593,E 116th St,New York,NY,New York County,10029
R331,N017,,C,IND,40.830551,-73.941486,Saint Nicholas Ave,New York,NY,New York County,10032
R207,R306,,23,IRT,40.814459,-73.940992,W 135th St,New York,NY,New York County,10030
R207,R307,,23,IRT,40.814459,-73.940992,W 135th St,New York,NY,New York County,10030
R199,N119,,C,IND,40.679921,-73.940858,Fulton St,Brooklyn,NY,Kings County,11216
R199,N118,,C,IND,40.679921,-73.940858,Fulton St,Brooklyn,NY,Kings County,11216
R250,H016,,L,BMT,40.711874,-73.94067,Bushwick Ave,Brooklyn,NY,Kings County,11206
R250,H015,,L,BMT,40.711874,-73.94067,Bushwick Ave,Brooklyn,NY,Kings County,11206
R121,R509,,7NQ,IRT,40.750508,-73.940177,Queens Plz S,Long Island City,NY,Queens County,11101
R035,N012,,1AC,IND,40.840778,-73.940091,Broadway,New York,NY,New York County,10032
R035,N013,,AC1,IND,40.840778,-73.940091,Broadway,New York,NY,New York County,10032
R035,R182,,1AC,IRT,40.840778,-73.940091,Broadway,New York,NY,New York County,10032
R265,H017,,L,BMT,40.707889,-73.940005,Bushwick Ave,Brooklyn,NY,Kings County,11206
R296,N016A,,C,IND,40.835957,-73.939898,St Nicholas Ave,New York,NY,New York County,10032
R126,N010,,A,IND,40.847369,-73.939683,Fort Washington Ave,New York,NY,New York County,10033
R126,N011,,A,IND,40.847369,-73.939683,Fort Washington Ave,New York,NY,New York County,10033
R315,N202,,BD,IND,40.829934,-73.938632,W 155th St,New York,NY,New York County,10032
R174,N007A,,A,IND,40.851686,-73.937967,Fort Washington Ave,New York,NY,New York County,10033
R174,N009,,A,IND,40.851686,-73.937967,Fort Washington Ave,New York,NY,New York County,10033
R132,R258,,456,IRT,40.804406,-73.937452,Dr Martin Luther King Jr Blvd,New York,NY,New York County,10035
R140,N309A,,EMR,IND,40.748948,-73.937194,Queens Blvd,Long Island City,NY,Queens County,11101
R140,N310,,EMR,IND,40.748948,-73.937194,Queens Blvd,Long Island City,NY,Queens County,11101
R345,R309,,3,IRT,40.823877,-73.936443,7th Ave,New York,NY,New York County,10039
R344,R308,,3,IRT,40.820402,-73.936315,Esplanade Gardens Plz,New York,NY,New York County,10027
R378,J009,,JMZ,BMT,40.697266,-73.935692,Broadway,Brooklyn,NY,Kings County,11206
R280,N006A,,A,IND,40.859022,-73.93419,Fort Washington Ave,New York,NY,New York County,10040
R260,R183,,1,IRT,40.849495,-73.933632,St Nicholas Ave,New York,NY,New York County,10033
R294,H019,,L,BMT,40.706148,-73.93316,Harrison Pl,Brooklyn,NY,Kings County,11206
R062,R626,,34,IRT,40.669279,-73.932967,Eastern Pkwy,Brooklyn,NY,Kings County,11213
R062,R625,,34,IRT,40.669279,-73.932967,Eastern Pkwy,Brooklyn,NY,Kings County,11213
R090,R510,,NQ,BMT,40.753076,-73.93271,31st St,Long Island City,NY,Queens County,11101
R291,R516,,7,IRT,40.744558,-73.930993,Queens Blvd,Long Island City,NY,Queens County,11101
R291,R517,,7,IRT,40.744558,-73.930993,Queens Blvd,Long Island City,NY,Queens County,11101
R153,N120,,AC,IND,40.679279,-73.930585,Fulton St,Brooklyn,NY,Kings County,11233
R153,N120A,,AC,IND,40.679279,-73.930585,Fulton St,Brooklyn,NY,Kings County,11233
R307,R259,,45,IRT,40.813208,-73.929877,Grand Concourse,Bronx,NY,Bronx County,10451
R274,R185,,1,IRT,40.855176,-73.929384,St Nicholas Ave,New York,NY,New York County,10040
R091,R511,,NQ,BMT,40.756977,-73.929373,31st St,Astoria,NY,Queens County,11106
R379,J012,,J,BMT,40.693329,-73.928826,Broadway,Brooklyn,NY,Kings County,11221
R339,N312,,MR,IND,40.75202,-73.92874,Northern Blvd,Long Island City,NY,Queens County,11101
R339,N311,,MR,IND,40.75202,-73.92874,Northern Blvd,Long Island City,NY,Queens County,11101
R401,K017,,M,BMT,40.697673,-73.927131,Myrtle Ave,Brooklyn,NY,Kings County,11221
R185,N003,,A,IND,40.865286,-73.92698,Dyckman St,New York,NY,New York County,10040
R205,R261,,245,IRT,40.818429,-73.926927,E 149th St,Bronx,NY,Bronx County,10451
R205,R260,,245,IRT,40.818429,-73.926927,E 149th St,Bronx,NY,Bronx County,10451
R445,R401,,6,IRT,40.810512,-73.926165,E 138th St,Bronx,NY,Bronx County,10454
R195,N203,,BD4,IND,40.827888,-73.925736,E 161st St,Bronx,NY,Bronx County,10451
R195,N204,,BD4,IND,40.827888,-73.925736,E 161st St,Bronx,NY,Bronx County,10451
R195,N205,,BD4,IND,40.827888,-73.925736,E 161st St,Bronx,NY,Bronx County,10451
R195,R262,,BD4,IRT,40.827888,-73.925736,E 161st St,Bronx,NY,Bronx County,10451
R195,R262A,,4BD,IRT,40.827888,-73.925736,E 161st St,Bronx,NY,Bronx County,10451
R195,R262B,,4BD,IRT,40.827888,-73.925736,E 161st St,Bronx,NY,Bronx County,10451
R036,R186,,1,IRT,40.860523,-73.925575,Fort George Hl,New York,NY,New York County,10040
R092,R512,,NQ,BMT,40.761959,-73.925382,31st St,Astoria,NY,Queens County,11106
R261,R518,,7,IRT,40.743778,-73.923998,Queens Blvd,Sunnyside,NY,Queens County,11104
R279,H022,,L,BMT,40.706636,-73.922925,Wyckoff Ave,Brooklyn,NY,Kings County,11237
R063,R627,,3,IRT,40.664591,-73.922668,E 98th St,Brooklyn,NY,Kings County,11212
R380,J013,,JZ,BMT,40.689652,-73.922281,Broadway,Brooklyn,NY,Kings County,11221
R093,R513,,NQ,BMT,40.766843,-73.921423,31st St,Astoria,NY,Queens County,11102
R221,R283,,4,IRT,40.835535,-73.92138,River Ave,Bronx,NY,Bronx County,10452
R438,N121B,,C,IND,40.678815,-73.920801,Fulton St,Brooklyn,NY,Kings County,11233
R238,N315,,MR,IND,40.756864,-73.920736,Steinway St,Astoria,NY,Queens County,11103
R238,N314,,MR,IND,40.756864,-73.920736,Steinway St,Astoria,NY,Queens County,11103
R173,N002A,,A,IND,40.868045,-73.919921,Broadway,New York,NY,New York County,10034
R173,N001,,A,IND,40.868045,-73.919921,Broadway,New York,NY,New York County,10034
R413,K019,,M,BMT,40.698666,-73.919685,Myrtle Ave,Brooklyn,NY,Kings County,11237
R446,R402,,6,IRT,40.808044,-73.919234,Brook Ave,Bronx,NY,Bronx County,10454
R446,R403,,6,IRT,40.808044,-73.919234,Brook Ave,Bronx,NY,Bronx County,10454
R037,R188,,1,IRT,40.864653,-73.918719,10th Ave,New York,NY,New York County,10034
R236,H023,,L,BMT,40.703839,-73.91844,Wyckoff Ave,Brooklyn,NY,Kings County,11237
R104,N207,,BD,IND,40.833773,-73.91843,Grand Concourse,Bronx,NY,Bronx County,10452
R104,N206,,BD,IND,40.833773,-73.91843,Grand Concourse,Bronx,NY,Bronx County,10452
R223,R519,,7,IRT,40.743079,-73.918419,Queens Blvd,Sunnyside,NY,Queens County,11104
R223,R520,,7,IRT,40.743079,-73.918419,Queens Blvd,Sunnyside,NY,Queens County,11104
R243,R284,,4,IRT,40.840048,-73.917775,Jerome Ave,Bronx,NY,Bronx County,10452
R053,R311,,25,IRT,40.816132,-73.917754,Melrose Ave,Bronx,NY,Bronx County,10455
R053,R310,,25,IRT,40.816132,-73.917754,Melrose Ave,Bronx,NY,Bronx County,10455
R094,R514,,NQ,BMT,40.770426,-73.917614,Hoyt Ave,Astoria,NY,Queens County,11102
R381,J016,,J,BMT,40.68617,-73.916337,Broadway,Brooklyn,NY,Kings County,11221
R064,R628,,3,IRT,40.661466,-73.916316,Livonia Ave,Brooklyn,NY,Kings County,11212
R038,R190,,1,IRT,40.869359,-73.915329,10th Ave,New York,NY,New York County,10034
R308,R285,,4,IRT,40.844406,-73.914621,Jerome Ave,Bronx,NY,Bronx County,10452
R447,R404,,6,IRT,40.805737,-73.914471,Cypress Ave,Bronx,NY,Bronx County,10454
R447,R405,,6,IRT,40.805737,-73.914471,Cypress Ave,Bronx,NY,Bronx County,10454
R443,N209,,BD,IND,40.839301,-73.913355,Grand Concourse,Bronx,NY,Bronx County,10452
R443,N208,,BD,IND,40.839301,-73.913355,Grand Concourse,Bronx,NY,Bronx County,10452
R267,N316,,MR,IND,40.756312,-73.913333,Broadway,Astoria,NY,Queens County,11103
R267,N316A,,MR,IND,40.756312,-73.913333,Broadway,Astoria,NY,Queens County,11103
R267,N317,,MR,IND,40.756312,-73.913333,Broadway,Astoria,NY,Queens County,11103
R309,R286,,4,IRT,40.848635,-73.912497,Davidson Ave,Bronx,NY,Bronx County,10453
R327,R521,,7,IRT,40.744103,-73.912497,52nd St,Woodside,NY,Queens County,11377
R095,R515,,NQ,BMT,40.774984,-73.912067,31st St,Astoria,NY,Queens County,11105
R439,N122,,C,IND,40.67836,-73.911939,Fulton St,Brooklyn,NY,Kings County,11233
R439,N123B,,C,IND,40.67836,-73.911939,Fulton St,Brooklyn,NY,Kings County,11233
R137,H026,,LM,BMT,40.699707,-73.91181,Gates Ave,Brooklyn,NY,Kings County,11221
R137,H027,,LM,BMT,40.699707,-73.91181,Gates Ave,Brooklyn,NY,Kings County,11221
R432,J017,,JZ,BMT,40.682867,-73.91048,Broadway,Brooklyn,NY,Kings County,11207
R039,R192,,1,IRT,40.874551,-73.909879,Broadway,New York,NY,New York County,10034
R065,R629,,3,IRT,40.662541,-73.908763,Livonia Ave,Brooklyn,NY,Kings County,11212
R405,R312,,25,IRT,40.816505,-73.907797,Westchester Ave,Bronx,NY,Bronx County,10455
R402,K022,,M,BMT,40.702798,-73.907776,Palmetto St,Ridgewood,NY,Queens County,11385
R244,R287,,4,IRT,40.85339,-73.907733,Jerome Ave,Bronx,NY,Bronx County,10453
R448,R406,,6,IRT,40.808742,-73.90769,Southern Blvd,Bronx,NY,Bronx County,10454
R448,R407,,6,IRT,40.808742,-73.90769,Southern Blvd,Bronx,NY,Bronx County,10454
R298,N318,,MR,IND,40.752898,-73.905973,Broadway,Woodside,NY,Queens County,11377
R298,N319,,MR,IND,40.752898,-73.905973,Broadway,Woodside,NY,Queens County,11377
R313,H033,,L,BMT,40.682558,-73.905501,Aberdeen St,Brooklyn,NY,Kings County,11207
R154,N213,,BD,IND,40.850307,-73.905244,Grand Concourse,Bronx,NY,Bronx County,10453
R154,N214,,BD,IND,40.850307,-73.905244,Grand Concourse,Bronx,NY,Bronx County,10453
R040,R194,,1,IRT,40.878867,-73.904858,Broadway,Bronx,NY,Bronx County,10463
R103,N124,,ACJLZ,IND,40.678848,-73.904139,Conway St,Brooklyn,NY,Kings County,11233
R449,R408,,6,IRT,40.812104,-73.904085,E 149th St,Bronx,NY,Bronx County,10455
R449,R409,,6,IRT,40.812104,-73.904085,E 149th St,Bronx,NY,Bronx County,10455
R266,H028,,L,BMT,40.695607,-73.904021,Wyckoff Ave,Ridgewood,NY,Queens County,11385
R266,H030,,L,BMT,40.695607,-73.904021,Wyckoff Ave,Ridgewood,NY,Queens County,11385
R295,H032,,L,BMT,40.688676,-73.903999,Wilson Ave,Brooklyn,NY,Kings County,11207
R275,R288,,4,IRT,40.858389,-73.903828,Jerome Ave,Bronx,NY,Bronx County,10453
R403,K024,,M,BMT,40.704424,-73.903077,Madison St,Ridgewood,NY,Queens County,11385
R147,R523,,7,IRT,40.745623,-73.902969,Roosevelt Ave,Woodside,NY,Queens County,11377
R348,H035,,L,BMT,40.675496,-73.902819,E New York Ave,Brooklyn,NY,Kings County,11207
R066,R630,,3,IRT,40.663419,-73.902454,Livonia Ave,Brooklyn,NY,Kings County,11212
R349,H037,,L,BMT,40.669376,-73.902047,Van Sinderen Ave,Brooklyn,NY,Kings County,11207
R152,H041,,L,BMT,40.64666,-73.901832,E 99th St,Brooklyn,NY,Kings County,11236
R406,R314,,25,IRT,40.819396,-73.901467,Longwood Ave,Bronx,NY,Bronx County,10459
R406,R315,,25,IRT,40.819396,-73.901467,Longwood Ave,Bronx,NY,Bronx County,10459
R119,R289,,4,IRT,40.862941,-73.901199,W Fordham Rd,Bronx,NY,Bronx County,10468
R112,N217,,BD,IND,40.862803,-73.901034,Jerome Ave,Bronx,NY,Bronx County,10468
R112,N218,,BD,IND,40.862803,-73.901034,Jerome Ave,Bronx,NY,Bronx County,10468
R306,R196,,1,IRT,40.884821,-73.900759,Broadway,Bronx,NY,Bronx County,10463
R237,N215,,BD,IND,40.856085,-73.900695,Grand Concourse,Bronx,NY,Bronx County,10453
R350,H038,,L,BMT,40.663801,-73.900444,Livonia Ave,Brooklyn,NY,Kings County,11207
R376,H040,,L,BMT,40.650625,-73.899558,Turnbull Ave,Brooklyn,NY,Kings County,11236
R375,H039,,L,BMT,40.658748,-73.899472,New Lots Ave,Brooklyn,NY,Kings County,11212
R433,J020,,J,BMT,40.677107,-73.898871,Fulton St,Brooklyn,NY,Kings County,11207
R117,R197,,1,IRT,40.889185,-73.898549,Broadway,Bronx,NY,Bronx County,10463
R340,N322,,MR,IND,40.749663,-73.898485,64th St,Woodside,NY,Queens County,11377
R161,R290,,4,IRT,40.867899,-73.897326,Jerome Ave,Bronx,NY,Bronx County,10468
R407,R316,,25,IRT,40.822172,-73.896747,Westchester Ave,Bronx,NY,Bronx County,10459
R440,N125,,C,IND,40.674552,-73.896554,Pennsylvania Ave,Brooklyn,NY,Kings County,11207
R347,R524,,7,IRT,40.746325,-73.896403,Roosevelt Ave,Woodside,NY,Queens County,11377
R450,R410,,6,IRT,40.816083,-73.89606,Longwood Ave,Bronx,NY,Bronx County,10459
R450,R411,,6,IRT,40.816083,-73.89606,Longwood Ave,Bronx,NY,Bronx County,10459
R404,K025,,M,BMT,40.706181,-73.89591,67th Ave,Ridgewood,NY,Queens County,11385
R067,R632,,3,IRT,40.664884,-73.894258,Livonia Ave,Brooklyn,NY,Kings County,11207
R155,N221,,BD,IND,40.866974,-73.893485,Grand Concourse,Bronx,NY,Bronx County,10458
R155,N220,,BD,IND,40.866974,-73.893485,Grand Concourse,Bronx,NY,Bronx County,10458
R408,R318,,25,IRT,40.82417,-73.893228,E 165th St,Bronx,NY,Bronx County,10459
R408,R317,,25,IRT,40.82417,-73.893228,E 165th St,Bronx,NY,Bronx County,10459
R409,R320,,25,IRT,40.829966,-73.891876,Southern Blvd,Bronx,NY,Bronx County,10459
R409,R319,,25,IRT,40.829966,-73.891876,Southern Blvd,Bronx,NY,Bronx County,10459
R434,J021,,JZ,BMT,40.678018,-73.891726,Fulton St,Brooklyn,NY,Kings County,11207
R018,N324,,EFMR7,IND,40.746655,-73.891361,74th St,Elmhurst,NY,Queens County,11373
R018,N323,,EFMR7,IND,40.746655,-73.891361,74th St,Elmhurst,NY,Queens County,11373
R018,R525,,EFMR7,IRT,40.746655,-73.891361,74th St,Elmhurst,NY,Queens County,11373
R146,R412,,6,IRT,40.820889,-73.890567,E 163rd St,Bronx,NY,Bronx County,10459
R441,N126,,C,IND,40.672786,-73.890438,Pitkin Ave,Brooklyn,NY,Kings County,11207
R183,R291,,4,IRT,40.873399,-73.890084,Jerome Ave,Bronx,NY,Bronx County,10468
R100,K026,,M,BMT,40.711353,-73.88958,Metropolitan Ave,Middle Village,NY,Queens County,11379
R068,R633,,3,IRT,40.665405,-73.889451,Livonia Ave,Brooklyn,NY,Kings County,11207
R386,R322,,25,IRT,40.837382,-73.887659,E 174th St,Bronx,NY,Bronx County,10460
R386,R321,,25,IRT,40.837382,-73.887659,E 174th St,Bronx,NY,Bronx County,10460
R156,N222,,BD,IND,40.873026,-73.886919,Grand Concourse,Bronx,NY,Bronx County,10458
R156,N223,,BD,IND,40.873026,-73.886919,Grand Concourse,Bronx,NY,Bronx County,10458
R325,R413,,6,IRT,40.826508,-73.886425,Whitlock Ave,Bronx,NY,Bronx County,10459
R435,J022,,J,BMT,40.679938,-73.884687,Fulton St,Brooklyn,NY,Kings County,11208
R133,R293,,4,IRT,40.87963,-73.884666,Jerome Ave,Bronx,NY,Bronx County,10468
R069,R634,,3,IRT,40.666252,-73.884087,Livonia Ave,Brooklyn,NY,Kings County,11207
R096,R526,,7,IRT,40.747647,-73.883786,Roosevelt Ave,Jackson Heights,NY,Queens County,11372
R218,N325A,,MR,IND,40.742445,-73.882005,Broadway,Elmhurst,NY,Queens County,11373
R442,N127,,C,IND,40.674161,-73.880761,Pitkin Ave,Brooklyn,NY,Kings County,11208
R436,J023,,JZ,BMT,40.681598,-73.880074,Arlington Ave,Brooklyn,NY,Kings County,11208
R387,R323,,25,IRT,40.840097,-73.879774,E Tremont Ave,Bronx,NY,Bronx County,10460
R387,R323A,,25,IRT,40.840097,-73.879774,E Tremont Ave,Bronx,NY,Bronx County,10460
R162,R414,,6,IRT,40.828894,-73.879559,Elder Ave,Bronx,NY,Bronx County,10472
R157,N224,,D,IND,40.874827,-73.878872,E 206th St,Bronx,NY,Bronx County,10467
R157,N225,,D,IND,40.874827,-73.878872,E 206th St,Bronx,NY,Bronx County,10467
R052,R294,,4,IRT,40.885973,-73.878851,Jerome Ave,Bronx,NY,Bronx County,10467
R254,N327,,MR,IND,40.736998,-73.877242,Broadway,Elmhurst,NY,Queens County,11373
R122,R527,,7,IRT,40.748541,-73.876791,Roosevelt Ave,Jackson Heights,NY,Queens County,11372
R120,R415,,6,IRT,40.829495,-73.874559,Morrison Ave,Bronx,NY,Bronx County,10472
R437,J024,,JZ,BMT,40.683209,-73.873765,Fulton St,Brooklyn,NY,Kings County,11208
R388,R325,,25,IRT,40.841882,-73.873551,E 180th St,Bronx,NY,Bronx County,10460
R003,J025,,J,BMT,40.689945,-73.872564,Jamaica Ave,Brooklyn,NY,Kings County,11208
R200,N128,,AC,IND,40.675382,-73.87207,Pitkin Ave,Brooklyn,NY,Kings County,11208
R538,LGA01,,7,IRT,40.774702,-73.871189,Ditmars Blvd,East Elmhurst,NY,Queens County,11369
R097,R528,,7,IRT,40.749143,-73.869452,Roosevelt Ave,Jackson Heights,NY,Queens County,11372
R201,N329,,MR,IND,40.73308,-73.869259,Queens Blvd,Rego Park,NY,Queens County,11374
R201,N329A,,MR,IND,40.73308,-73.869259,Queens Blvd,Rego Park,NY,Queens County,11374
R389,R326,,25,IRT,40.848797,-73.868465,Sagamore St,Bronx,NY,Bronx County,10462
R245,R416,,6,IRT,40.8315,-73.867623,Westchester Ave,Bronx,NY,Bronx County,10472
R361,R328,,25,IRT,40.857188,-73.867607,Pelham Pkwy S,Bronx,NY,Bronx County,10462
R361,R327,,25,IRT,40.857188,-73.867607,Pelham Pkwy S,Bronx,NY,Bronx County,10462
R362,R329,,25,IRT,40.865481,-73.867393,White Plains Rd,Bronx,NY,Bronx County,10467
R004,J028,,JZ,BMT,40.69132,-73.867135,Jamaica Ave,Woodhaven,NY,Queens County,11421
R363,R330,,25,IRT,40.871387,-73.867135,White Plains Rd,Bronx,NY,Bronx County,10467
R226,R728,,5,IRT,40.877796,-73.866341,White Plains Rd,Bronx,NY,Bronx County,10467
R364,R331,,25,IRT,40.877796,-73.866255,White Plains Rd,Bronx,NY,Bronx County,10467
R382,N129,,A,IND,40.677107,-73.865376,Grant Ave,Brooklyn,NY,Kings County,11208
R365,R332,,25,IRT,40.883767,-73.862736,White Plains Rd,Bronx,NY,Bronx County,10467
R208,R529,,7,IRT,40.749858,-73.862672,Roosevelt Ave,Corona,NY,Queens County,11368
R202,N330B,,MR,IND,40.729869,-73.86161,Queens Blvd,Rego Park,NY,Queens County,11374
R202,N330C,,MR,IND,40.729869,-73.86161,Queens Blvd,Rego Park,NY,Queens County,11374
R329,R726,,5,IRT,40.854137,-73.860977,Colden Ave,Bronx,NY,Bronx County,10462
R222,R417,,6,IRT,40.833246,-73.860805,Hugh J Grant Cir,Bronx,NY,Bronx County,10462
R366,R333,,25,IRT,40.887887,-73.860505,E 225th St,Bronx,NY,Bronx County,10466
R005,J030,,J,BMT,40.692304,-73.860151,Jamaica Ave,Woodhaven,NY,Queens County,11421
R383,N131,,A,IND,40.679369,-73.85896,Liberty Ave,Ozone Park,NY,Queens County,11417
R383,N130,,A,IND,40.679369,-73.85896,Liberty Ave,Ozone Park,NY,Queens County,11417
R367,R334,,25,IRT,40.893386,-73.857265,E 233rd St,Bronx,NY,Bronx County,10466
R430,R727,,5,IRT,40.858973,-73.855355,Esplanade Ave,Bronx,NY,Bronx County,10469
R310,R530,,7,IRT,40.75176,-73.855183,Roosevelt Ave,Corona,NY,Queens County,11368
R444,R335,,25,IRT,40.898382,-73.854389,White Plains Rd,Bronx,NY,Bronx County,10466
R219,N331,,MR,IND,40.726462,-73.85263,Queens Blvd,Forest Hills,NY,Queens County,11375
R219,N332,,MR,IND,40.726462,-73.85263,Queens Blvd,Forest Hills,NY,Queens County,11375
R006,J031,,JZ,BMT,40.693866,-73.851568,Jamaica Ave,Woodhaven,NY,Queens County,11421
R006,J032,,JZ,BMT,40.693866,-73.851568,Jamaica Ave,Woodhaven,NY,Queens County,11421
R384,N133,,A,IND,40.679857,-73.851492,Liberty Ave,Ozone Park,NY,Queens County,11417
R106,R418,,6,IRT,40.834255,-73.851222,Westchester Ave,Bronx,NY,Bronx County,10462
R145,R336,,2,IRT,40.903085,-73.850591,White Plains Rd,Bronx,NY,Bronx County,10470
R326,R419,,6,IRT,40.83646,-73.846471,Zerega Ave,Bronx,NY,Bronx County,10462
R328,R532,,7,IRT,40.754622,-73.845625,126th St,Corona,NY,Queens County,11368
R328,R532G,,7,IRT,40.754622,-73.845625,126th St,Corona,NY,Queens County,11368
R328,R532H,,7,IRT,40.754622,-73.845625,126th St,Corona,NY,Queens County,11368
R141,N333A,,EFMR,IND,40.721681,-73.84439,Queens Blvd,Forest Hills,NY,Queens County,11375
R141,N333,,EFMR,IND,40.721681,-73.84439,Queens Blvd,Forest Hills,NY,Queens County,11375
R141,N333B,,EFMR,IND,40.721681,-73.84439,Queens Blvd,Forest Hills,NY,Queens County,11375
R007,J034,,JZ,BMT,40.695184,-73.844326,Jamaica Ave,Richmond Hill,NY,Queens County,11418
R385,N134,,A,IND,40.680429,-73.843853,Liberty Ave,Ozone Park,NY,Queens County,11417
R385,N135,,A,IND,40.680429,-73.843853,Liberty Ave,Ozone Park,NY,Queens County,11417
R107,R420,,6,IRT,40.839892,-73.842952,Lane Ave,Bronx,NY,Bronx County,10461
R292,R729,,5,IRT,40.878656,-73.838596,Edson Ave,Bronx,NY,Bronx County,10469
R354,N137,,A,IND,40.681745,-73.837631,Liberty Ave,Ozone Park,NY,Queens County,11417
R419,N187,,AS,IND,40.580454,-73.837459,Beach 116th St,Rockaway Park,NY,Queens County,11694
R341,N334B,,EF,IND,40.718477,-73.837223,Queens Blvd,Forest Hills,NY,Queens County,11375
R427,R421,,6,IRT,40.843635,-73.836687,Westchester Ave,Bronx,NY,Bronx County,10461
R008,J035,,J,BMT,40.697405,-73.836354,Jamaica Ave,Richmond Hill,NY,Queens County,11418
R357,N181,,A,IND,40.668234,-73.834058,Cohancy St,Howard Beach,NY,Queens County,11414
R464,N181A,,A,IND,40.668221,-73.834026,Cohancy St,Howard Beach,NY,Queens County,11414
R428,R422,,6,IRT,40.846817,-73.832545,Westchester Ave,Bronx,NY,Bronx County,10461
R355,N139,,A,IND,40.684364,-73.832181,Liberty Ave,South Richmond Hill,NY,Queens County,11419
R355,N138,,A,IND,40.684364,-73.832181,Liberty Ave,South Richmond Hill,NY,Queens County,11419
R158,N336,,EF,IND,40.714444,-73.830979,Queens Blvd,Forest Hills,NY,Queens County,11375
R158,N335,,EF,IND,40.714444,-73.830979,Queens Blvd,Forest Hills,NY,Queens County,11375
R431,R730,,5,IRT,40.888244,-73.83085,Light St,Bronx,NY,Bronx County,10466
R414,N182,,A,IND,40.660476,-73.830301,Coleman Sq,Howard Beach,NY,Queens County,11414
R414,N182A,,A,IND,40.660476,-73.830301,Coleman Sq,Howard Beach,NY,Queens County,11414
R535,JFK01,,A,IND,40.660476,-73.830301,Coleman Sq,Howard Beach,NY,Queens County,11414
R535,JFK02,,A,IND,40.660476,-73.830301,Coleman Sq,Howard Beach,NY,Queens County,11414
R055,R533,,7,IRT,40.759578,-73.830056,Roosevelt Ave,Flushing,NY,Queens County,11354
R055,R534,,7,IRT,40.759578,-73.830056,Roosevelt Ave,Flushing,NY,Queens County,11354
R009,J037,,JZ,BMT,40.700536,-73.828382,Jamaica Ave,Richmond Hill,NY,Queens County,11418
R429,R423,,6,IRT,40.852465,-73.828125,Westchester Ave,Bronx,NY,Bronx County,10461
R459,OB01,,6,IND,40.852417,-73.828082,Westchester Ave,Bronx,NY,Bronx County,10461
R418,N186,,AS,IND,40.583542,-73.82643,Beach 105th St,Rockaway Park,NY,Queens County,11694
R356,N141,,A,IND,40.685975,-73.824713,Liberty Ave,South Richmond Hill,NY,Queens County,11419
R255,N337,,EF,IND,40.709174,-73.820593,Van Wyck Expy,Jamaica,NY,Queens County,11435
R417,N185,,AS,IND,40.585514,-73.820143,Beach 98th St,Rockaway Park,NY,Queens County,11694
R342,N604,,E,IND,40.702566,-73.816859,Metropolitan Ave,Richmond Hill,NY,Queens County,11418
R415,N183,,AS,IND,40.608693,-73.816068,West Rd,Far Rockaway,NY,Queens County,11693
R416,N184,,AS,IND,40.588032,-73.813684,Gull Ct,Far Rockaway,NY,Queens County,11693
R128,N338B,,F,IND,40.705416,-73.810562,146th St,Jamaica,NY,Queens County,11435
R128,N338,,F,IND,40.705416,-73.810562,146th St,Jamaica,NY,Queens County,11435
R024,N605,,EJZ,IND,40.700488,-73.807933,Archer Ave,Jamaica,NY,Queens County,11435
R114,N339A,,F,IND,40.707564,-73.803326,Hillside Ave,Jamaica,NY,Queens County,11432
R114,N339,,F,IND,40.707564,-73.803326,Hillside Ave,Jamaica,NY,Queens County,11432
R025,N606,,EJZ,IND,40.702131,-73.80111,Archer Ave,Jamaica,NY,Queens County,11433
R025,N607,,EJZ,IND,40.702131,-73.80111,Archer Ave,Jamaica,NY,Queens County,11433
R335,N191,,A,IND,40.590867,-73.797011,Beach 68th St,Arverne,NY,Queens County,11692
R115,N340,,F,IND,40.710459,-73.7936,Hillside Ave,Jamaica,NY,Queens County,11432
R115,N340A,,F,IND,40.710459,-73.7936,Hillside Ave,Jamaica,NY,Queens County,11432
R336,N192,,A,IND,40.592334,-73.788493,Rockaway Beach Blvd,Arverne,NY,Queens County,11692
R019,N343,,F,IND,40.712622,-73.783815,Hillside Ave,Jamaica,NY,Queens County,11432
R019,N342,,F,IND,40.712622,-73.783815,Hillside Ave,Jamaica,NY,Queens County,11432
R536,JFK03,,E,IND,40.643942,-73.782356,Central Terminal Area,Jamaica,NY,Queens County,11430
R537,JFK04,,E,IND,40.643942,-73.782356,Central Terminal Area,Jamaica,NY,Queens County,11430
R337,N193,,A,IND,40.593214,-73.776433,Rockaway Beach Blvd,Far Rockaway,NY,Queens County,11691
R338,N194,,A,IND,40.595381,-73.768194,Edgemere Ave,Far Rockaway,NY,Queens County,11691
R358,N195,,A,IND,40.600138,-73.76152,Rockaway Fwy,Far Rockaway,NY,Queens County,11691
R285,N196,,A,IND,40.603983,-73.755383,Beach Channel Dr,Far Rockaway,NY,Queens County,11691
R253,N210,,BD,IND,40.845892,-73.910136,Grand Blvd,Bronx,NY,Bronx County,10453
R253,N212,,BD,IND,40.845892,-73.910136,Grand Blvd,Bronx,NY,Bronx County,10453
R001,A060,,R1,BMT,40.703082,-74.012983,Whitehall St,New York,NY,New York County,10004
R001,A058,,R1,BMT,40.703082,-74.012983,Whitehall St,New York,NY,New York County,10004
R001,R101S,,R1,IRT,40.703082,-74.012983,Whitehall St,New York,NY,New York County,10004
R532,WCCTR,,5,BEE,,,,,,,
R457,MCB1,,23,BMT,,,,,,,
R458,MCB2,,23,BMT,,,,,,,
R465,MCV1,,1,BMT,,,,,,,
R466,MCV2,,1,BMT,,,,,,,
R467,MCV3,,1,BMT,,,,,,,
R410,X001,,1,IRT,,,,,,,
R526,LI001,,F,LIB,,,,,,,
R541,PTH13,,1,PTH,,,,,,,
R546,PTH06,,1,PTH,,,,,,,
R547,PTH10,,1,PTH,,,,,,,
R548,PTH09,,1,PTH,,,,,,,
R549,PTH01,,1,PTH,,,,,,,
R549,PTH18,,1,PTH,,,,,,,
R549,PTH19,,1,PTH,,,,,,,
R549,PTH20,,1,PTH,,,,,,,
R550,PTH07,,1,PTH,,,,,,,
R550,PTH16,,1,PTH,,,,,,,